RESOURCESAT-2           
1 37387U 11015A   25144.85540214  .00000117  00000+0  73706-4 0  9996
2 37387  98.8092 209.0107 0004780 251.6756 108.3901 14.21575551731533
HAIYANG-2A              
1 37781U 11043A   25144.83154219  .00000000  00000+0  43553-4 0  9997
2 37781  99.3325 148.8695 0000331 135.1434 224.9744 13.78815228693418
RASAT                   
1 37791U 11044D   25144.84743626  .00000446  00000+0  87020-4 0  9997
2 37791  98.0670 237.1127 0020358 346.8026 152.1023 14.67569079736238
SRMSAT                  
1 37841U 11058D   25144.55679711  .00000418  00000+0  83215-4 0  9990
2 37841  19.9716 251.5151 0011613 248.8692 215.3986 14.11431148702842
PLEIADES 1A             
1 38012U 11076F   25144.85473019  .00000304  00000+0  75259-4 0  9990
2 38012  98.1983 220.4969 0001029  98.0086  36.9249 14.58537840715392
ZIYUAN 1-02C (ZY 1-02C) 
1 38038U 11079A   25144.87851541  .00000398  00000+0  14649-3 0  9991
2 38038  98.4536 214.3633 0007079  38.7701  21.2766 14.37752240703458
ZIYUAN 3-1 (ZY 3-1)     
1 38046U 12001A   25144.87265438  .00016516  00000+0  27406-3 0  9994
2 38046  97.1998 209.4407 0003060  23.5523 336.5870 15.52187874743599
ARIRANG-3 (KOMPSAT-3)   
1 38338U 12025B   25144.86219639  .00000449  00000+0  98121-4 0  9996
2 38338  98.3055  98.3260 0005805 236.3245 123.7403 14.62480368694706
EXACTVIEW-1 (ADS-1B)    
1 38709U 12039C   25144.29302279  .00000114  00000+0  68893-4 0  9995
2 38709  98.9511 248.6083 0010456 207.2175 152.8456 14.24810963667326
SPOT 6                  
1 38755U 12047A   25144.84543119  .00000301  00000+0  74540-4 0  9990
2 38755  98.1778 213.0413 0001040  94.7865 265.3453 14.58545066676470
PLEIADES 1B             
1 39019U 12068A   25144.79432133  .00000311  00000+0  76844-4 0  9994
2 39019  98.1955 220.3893 0001252  97.8062 262.3280 14.58531350664239
GOKTURK 2               
1 39030U 12073A   25144.84627552  .00000451  00000+0  74029-4 0  9998
2 39030  97.7121 356.2208 0001824 107.8584 252.2824 14.74984133667286
LANDSAT 8               
1 39084U 13008A   25144.83607956  .00000327  00000+0  82632-4 0  9992
2 39084  98.2260 215.6079 0001310  98.4571 261.6776 14.57107353653164
SARAL                   
1 39086U 13009A   25144.54759559  .00000111  00000+0  56701-4 0  9999
2 39086  98.5537 331.1020 0002275  29.6870 330.4442 14.32700875639952
