[
  {
    "OBJECT_NAME": "RESOURCESAT-2",
    "OBJECT_ID": "2011-015A",
    "EPOCH": "2025-05-24T20:31:46.744896",
    "MEAN_MOTION": 14.21575551,
    "ECCENTRICITY": 0.000478,
    "INCLINATION": 98.8092,
    "RA_OF_ASC_NODE": 209.0107,
    "ARG_OF_PERICENTER": 251.6756,
    "MEAN_ANOMALY": 108.3901,
    "EPHEMERIS_TYPE": 0,
    "CLASSIFICATION_TYPE": "U",
    "NORAD_CAT_ID": 37387,
    "ELEMENT_SET_NO": 999,
    "REV_AT_EPOCH": 73153,
    "BSTAR": 7.3706e-05,
    "MEAN_MOTION_DOT": 1.17e-06,
    "MEAN_MOTION_DDOT": 0
  },
  {
    "OBJECT_NAME": "HAIYANG-2A",
    "OBJECT_ID": "2011-043A",
    "EPOCH": "2025-05-24T19:57:25.245216",
    "MEAN_MOTION": 13.78815228,
    "ECCENTRICITY": 3.31e-05,
    "INCLINATION": 99.3325,
    "RA_OF_ASC_NODE": 148.8695,
    "ARG_OF_PERICENTER": 135.1434,
    "MEAN_ANOMALY": 224.9744,
    "EPHEMERIS_TYPE": 0,
    "CLASSIFICATION_TYPE": "U",
    "NORAD_CAT_ID": 37781,
    "ELEMENT_SET_NO": 999,
    "REV_AT_EPOCH": 69341,
    "BSTAR": 4.3553e-05,
    "MEAN_MOTION_DOT": 0,
    "MEAN_MOTION_DDOT": 0
  },
  {
    "OBJECT_NAME": "RASAT",
    "OBJECT_ID": "2011-044D",
    "EPOCH": "2025-05-24T20:20:18.492864",
    "MEAN_MOTION": 14.67569079,
    "ECCENTRICITY": 0.0020358,
    "INCLINATION": 98.067,
    "RA_OF_ASC_NODE": 237.1127,
    "ARG_OF_PERICENTER": 346.8026,
    "MEAN_ANOMALY": 152.1023,
    "EPHEMERIS_TYPE": 0,
    "CLASSIFICATION_TYPE": "U",
    "NORAD_CAT_ID": 37791,
    "ELEMENT_SET_NO": 999,
    "REV_AT_EPOCH": 73623,
    "BSTAR": 8.702e-05,
    "MEAN_MOTION_DOT": 4.46e-06,
    "MEAN_MOTION_DDOT": 0
  },
  {
    "OBJECT_NAME": "SRMSAT",
    "OBJECT_ID": "2011-058D",
    "EPOCH": "2025-05-24T13:21:47.270304",
    "MEAN_MOTION": 14.11431148,
    "ECCENTRICITY": 0.0011613,
    "INCLINATION": 19.9716,
    "RA_OF_ASC_NODE": 251.5151,
    "ARG_OF_PERICENTER": 248.8692,
    "MEAN_ANOMALY": 215.3986,
    "EPHEMERIS_TYPE": 0,
    "CLASSIFICATION_TYPE": "U",
    "NORAD_CAT_ID": 37841,
    "ELEMENT_SET_NO": 999,
    "REV_AT_EPOCH": 70284,
    "BSTAR": 8.3215e-05,
    "MEAN_MOTION_DOT": 4.18e-06,
    "MEAN_MOTION_DDOT": 0
  },
  {
    "OBJECT_NAME": "PLEIADES 1A",
    "OBJECT_ID": "2011-076F",
    "EPOCH": "2025-05-24T20:30:48.688416",
    "MEAN_MOTION": 14.5853784,
    "ECCENTRICITY": 0.0001029,
    "INCLINATION": 98.1983,
    "RA_OF_ASC_NODE": 220.4969,
    "ARG_OF_PERICENTER": 98.0086,
    "MEAN_ANOMALY": 36.9249,
    "EPHEMERIS_TYPE": 0,
    "CLASSIFICATION_TYPE": "U",
    "NORAD_CAT_ID": 38012,
    "ELEMENT_SET_NO": 999,
    "REV_AT_EPOCH": 71539,
    "BSTAR": 7.5259e-05,
    "MEAN_MOTION_DOT": 3.04e-06,
    "MEAN_MOTION_DDOT": 0
  },
  {
    "OBJECT_NAME": "ZIYUAN 1-02C (ZY 1-02C)",
    "OBJECT_ID": "2011-079A",
    "EPOCH": "2025-05-24T21:05:03.731424",
    "MEAN_MOTION": 14.3775224,
    "ECCENTRICITY": 0.0007079,
    "INCLINATION": 98.4536,
    "RA_OF_ASC_NODE": 214.3633,
    "ARG_OF_PERICENTER": 38.7701,
    "MEAN_ANOMALY": 21.2766,
    "EPHEMERIS_TYPE": 0,
    "CLASSIFICATION_TYPE": "U",
    "NORAD_CAT_ID": 38038,
    "ELEMENT_SET_NO": 999,
    "REV_AT_EPOCH": 70345,
    "BSTAR": 0.00014649,
    "MEAN_MOTION_DOT": 3.98e-06,
    "MEAN_MOTION_DDOT": 0
  },
  {
    "OBJECT_NAME": "ZIYUAN 3-1 (ZY 3-1)",
    "OBJECT_ID": "2012-001A",
    "EPOCH": "2025-05-24T20:56:37.338432",
    "MEAN_MOTION": 15.52187874,
    "ECCENTRICITY": 0.000306,
    "INCLINATION": 97.1998,
    "RA_OF_ASC_NODE": 209.4407,
    "ARG_OF_PERICENTER": 23.5523,
    "MEAN_ANOMALY": 336.587,
    "EPHEMERIS_TYPE": 0,
    "CLASSIFICATION_TYPE": "U",
    "NORAD_CAT_ID": 38046,
    "ELEMENT_SET_NO": 999,
    "REV_AT_EPOCH": 74359,
    "BSTAR": 0.00027406,
    "MEAN_MOTION_DOT": 0.00016516,
    "MEAN_MOTION_DDOT": 0
  },
  {
    "OBJECT_NAME": "ARIRANG-3 (KOMPSAT-3)",
    "OBJECT_ID": "2012-025B",
    "EPOCH": "2025-05-24T20:41:33.768096",
    "MEAN_MOTION": 14.62480368,
    "ECCENTRICITY": 0.0005805,
    "INCLINATION": 98.3055,
    "RA_OF_ASC_NODE": 98.326,
    "ARG_OF_PERICENTER": 236.3245,
    "MEAN_ANOMALY": 123.7403,
    "EPHEMERIS_TYPE": 0,
    "CLASSIFICATION_TYPE": "U",
    "NORAD_CAT_ID": 38338,
    "ELEMENT_SET_NO": 999,
    "REV_AT_EPOCH": 69470,
    "BSTAR": 9.8121e-05,
    "MEAN_MOTION_DOT": 4.49e-06,
    "MEAN_MOTION_DDOT": 0
  },
  {
    "OBJECT_NAME": "EXACTVIEW-1 (ADS-1B)",
    "OBJECT_ID": "2012-039C",
    "EPOCH": "2025-05-24T07:01:57.169056",
    "MEAN_MOTION": 14.24810963,
    "ECCENTRICITY": 0.0010456,
    "INCLINATION": 98.9511,
    "RA_OF_ASC_NODE": 248.6083,
    "ARG_OF_PERICENTER": 207.2175,
    "MEAN_ANOMALY": 152.8456,
    "EPHEMERIS_TYPE": 0,
    "CLASSIFICATION_TYPE": "U",
    "NORAD_CAT_ID": 38709,
    "ELEMENT_SET_NO": 999,
    "REV_AT_EPOCH": 66732,
    "BSTAR": 6.8893e-05,
    "MEAN_MOTION_DOT": 1.14e-06,
    "MEAN_MOTION_DDOT": 0
  },
  {
    "OBJECT_NAME": "SPOT 6",
    "OBJECT_ID": "2012-047A",
    "EPOCH": "2025-05-24T20:17:25.254816",
    "MEAN_MOTION": 14.58545066,
    "ECCENTRICITY": 0.000104,
    "INCLINATION": 98.1778,
    "RA_OF_ASC_NODE": 213.0413,
    "ARG_OF_PERICENTER": 94.7865,
    "MEAN_ANOMALY": 265.3453,
    "EPHEMERIS_TYPE": 0,
    "CLASSIFICATION_TYPE": "U",
    "NORAD_CAT_ID": 38755,
    "ELEMENT_SET_NO": 999,
    "REV_AT_EPOCH": 67647,
    "BSTAR": 7.454e-05,
    "MEAN_MOTION_DOT": 3.01e-06,
    "MEAN_MOTION_DDOT": 0
  },
  {
    "OBJECT_NAME": "PLEIADES 1B",
    "OBJECT_ID": "2012-068A",
    "EPOCH": "2025-05-24T19:03:49.362912",
    "MEAN_MOTION": 14.5853135,
    "ECCENTRICITY": 0.0001252,
    "INCLINATION": 98.1955,
    "RA_OF_ASC_NODE": 220.3893,
    "ARG_OF_PERICENTER": 97.8062,
    "MEAN_ANOMALY": 262.328,
    "EPHEMERIS_TYPE": 0,
    "CLASSIFICATION_TYPE": "U",
    "NORAD_CAT_ID": 39019,
    "ELEMENT_SET_NO": 999,
    "REV_AT_EPOCH": 66423,
    "BSTAR": 7.6844e-05,
    "MEAN_MOTION_DOT": 3.11e-06,
    "MEAN_MOTION_DDOT": 0
  },
  {
    "OBJECT_NAME": "GOKTURK 2",
    "OBJECT_ID": "2012-073A",
    "EPOCH": "2025-05-24T20:18:38.204928",
    "MEAN_MOTION": 14.74984133,
    "ECCENTRICITY": 0.0001824,
    "INCLINATION": 97.7121,
    "RA_OF_ASC_NODE": 356.2208,
    "ARG_OF_PERICENTER": 107.8584,
    "MEAN_ANOMALY": 252.2824,
    "EPHEMERIS_TYPE": 0,
    "CLASSIFICATION_TYPE": "U",
    "NORAD_CAT_ID": 39030,
    "ELEMENT_SET_NO": 999,
    "REV_AT_EPOCH": 66728,
    "BSTAR": 7.4029e-05,
    "MEAN_MOTION_DOT": 4.51e-06,
    "MEAN_MOTION_DDOT": 0
  },
  {
    "OBJECT_NAME": "LANDSAT 8",
    "OBJECT_ID": "2013-008A",
    "EPOCH": "2025-05-24T20:03:57.273984",
    "MEAN_MOTION": 14.57107353,
    "ECCENTRICITY": 0.000131,
    "INCLINATION": 98.226,
    "RA_OF_ASC_NODE": 215.6079,
    "ARG_OF_PERICENTER": 98.4571,
    "MEAN_ANOMALY": 261.6776,
    "EPHEMERIS_TYPE": 0,
    "CLASSIFICATION_TYPE": "U",
    "NORAD_CAT_ID": 39084,
    "ELEMENT_SET_NO": 999,
    "REV_AT_EPOCH": 65316,
    "BSTAR": 8.2632e-05,
    "MEAN_MOTION_DOT": 3.27e-06,
    "MEAN_MOTION_DDOT": 0
  },
  {
    "OBJECT_NAME": "SARAL",
    "OBJECT_ID": "2013-009A",
    "EPOCH": "2025-05-24T13:08:32.258976",
    "MEAN_MOTION": 14.32700875,
    "ECCENTRICITY": 0.0002275,
    "INCLINATION": 98.5537,
    "RA_OF_ASC_NODE": 331.102,
    "ARG_OF_PERICENTER": 29.687,
    "MEAN_ANOMALY": 330.4442,
    "EPHEMERIS_TYPE": 0,
    "CLASSIFICATION_TYPE": "U",
    "NORAD_CAT_ID": 39086,
    "ELEMENT_SET_NO": 999,
    "REV_AT_EPOCH": 63995,
    "BSTAR": 5.6701e-05,
    "MEAN_MOTION_DOT": 1.11e-06,
    "MEAN_MOTION_DDOT": 0
  }
]